CCSDS_OMM_VERS = 2.0
CREATION_DATE  = 
ORIGINATOR     = 

OBJECT_NAME    = STARLINK-36487
OBJECT_ID      = 2026-005N
CENTER_NAME    = EARTH
REF_FRAME      = TEME
TIME_SYSTEM    = UTC
MEAN_ELEMENT_THEORY = SGP/SGP4

EPOCH          = 2026-02-11T00:38:54.249792
MEAN_MOTION    = 15.40741874
ECCENTRICITY   = .00017077
INCLINATION    = 43.0019
RA_OF_ASC_NODE = 30.7347
ARG_OF_PERICENTER = 221.6610
MEAN_ANOMALY   = 138.4117

EPHEMERIS_TYPE = 0
CLASSIFICATION_TYPE = U
NORAD_CAT_ID   = 67416
ELEMENT_SET_NO = 999
REV_AT_EPOCH   = 459
BSTAR          = .10770773E-2
MEAN_MOTION_DOT = .45017E-3
MEAN_MOTION_DDOT = 0

CCSDS_OMM_VERS = 2.0
CREATION_DATE  = 
ORIGINATOR     = 

OBJECT_NAME    = STARLINK-36374
OBJECT_ID      = 2026-005P
CENTER_NAME    = EARTH
REF_FRAME      = TEME
TIME_SYSTEM    = UTC
MEAN_ELEMENT_THEORY = SGP/SGP4

EPOCH          = 2026-02-10T23:39:23.317920
MEAN_MOTION    = 15.50067024
ECCENTRICITY   = .00006143
INCLINATION    = 43.0025
RA_OF_ASC_NODE = 30.4210
ARG_OF_PERICENTER = 335.6018
MEAN_ANOMALY   = 24.4813

EPHEMERIS_TYPE = 0
CLASSIFICATION_TYPE = U
NORAD_CAT_ID   = 67417
ELEMENT_SET_NO = 999
REV_AT_EPOCH   = 459
BSTAR          = .23680393E-2
MEAN_MOTION_DOT = .13852E-2
MEAN_MOTION_DDOT = 0

CCSDS_OMM_VERS = 2.0
CREATION_DATE  = 
ORIGINATOR     = 

OBJECT_NAME    = STARLINK-36455
OBJECT_ID      = 2026-005Q
CENTER_NAME    = EARTH
REF_FRAME      = TEME
TIME_SYSTEM    = UTC
MEAN_ELEMENT_THEORY = SGP/SGP4

EPOCH          = 2026-02-11T06:00:00.999648
MEAN_MOTION    = 15.42837745
ECCENTRICITY   = .00011573
INCLINATION    = 43.0004
RA_OF_ASC_NODE = 28.9175
ARG_OF_PERICENTER = 276.9593
MEAN_ANOMALY   = 103.6178

EPHEMERIS_TYPE = 0
CLASSIFICATION_TYPE = U
NORAD_CAT_ID   = 67418
ELEMENT_SET_NO = 999
REV_AT_EPOCH   = 593
BSTAR          = -.54723667E-1
MEAN_MOTION_DOT = -.2204625E-1
MEAN_MOTION_DDOT = 0

CCSDS_OMM_VERS = 2.0
CREATION_DATE  = 
ORIGINATOR     = 

OBJECT_NAME    = STARLINK-36424
OBJECT_ID      = 2026-005R
CENTER_NAME    = EARTH
REF_FRAME      = TEME
TIME_SYSTEM    = UTC
MEAN_ELEMENT_THEORY = SGP/SGP4

EPOCH          = 2026-02-11T06:00:00.999648
MEAN_MOTION    = 15.40655128
ECCENTRICITY   = .00014604
INCLINATION    = 43.0011
RA_OF_ASC_NODE = 29.2446
ARG_OF_PERICENTER = 272.2815
MEAN_ANOMALY   = 333.1946

EPHEMERIS_TYPE = 0
CLASSIFICATION_TYPE = U
NORAD_CAT_ID   = 67419
ELEMENT_SET_NO = 999
REV_AT_EPOCH   = 593
BSTAR          = .13084426E-2
MEAN_MOTION_DOT = .54664E-3
MEAN_MOTION_DDOT = 0

CCSDS_OMM_VERS = 2.0
CREATION_DATE  = 
ORIGINATOR     = 

OBJECT_NAME    = STARLINK-35564
OBJECT_ID      = 2026-005S
CENTER_NAME    = EARTH
REF_FRAME      = TEME
TIME_SYSTEM    = UTC
MEAN_ELEMENT_THEORY = SGP/SGP4

EPOCH          = 2026-02-10T22:03:39.934944
MEAN_MOTION    = 15.50583683
ECCENTRICITY   = .00016228
INCLINATION    = 43.0010
RA_OF_ASC_NODE = 30.7808
ARG_OF_PERICENTER = 249.1555
MEAN_ANOMALY   = 110.9132

EPHEMERIS_TYPE = 0
CLASSIFICATION_TYPE = U
NORAD_CAT_ID   = 67420
ELEMENT_SET_NO = 999
REV_AT_EPOCH   = 458
BSTAR          = .11312704E-2
MEAN_MOTION_DOT = .66603E-3
MEAN_MOTION_DDOT = 0

CCSDS_OMM_VERS = 2.0
CREATION_DATE  = 
ORIGINATOR     = 

OBJECT_NAME    = STARLINK-36431
OBJECT_ID      = 2026-005T
CENTER_NAME    = EARTH
REF_FRAME      = TEME
TIME_SYSTEM    = UTC
MEAN_ELEMENT_THEORY = SGP/SGP4

EPOCH          = 2026-02-10T09:08:35.814912
MEAN_MOTION    = 15.40712088
ECCENTRICITY   = .00014871
INCLINATION    = 43.0024
RA_OF_ASC_NODE = 34.4886
ARG_OF_PERICENTER = 243.8960
MEAN_ANOMALY   = 116.1744

EPHEMERIS_TYPE = 0
CLASSIFICATION_TYPE = U
NORAD_CAT_ID   = 67421
ELEMENT_SET_NO = 999
REV_AT_EPOCH   = 449
BSTAR          = .11578426E-2
MEAN_MOTION_DOT = .48389E-3
MEAN_MOTION_DDOT = 0

CCSDS_OMM_VERS = 2.0
CREATION_DATE  = 
ORIGINATOR     = 

OBJECT_NAME    = STARLINK-36418
OBJECT_ID      = 2026-005U
CENTER_NAME    = EARTH
REF_FRAME      = TEME
TIME_SYSTEM    = UTC
MEAN_ELEMENT_THEORY = SGP/SGP4

EPOCH          = 2026-02-11T06:00:00.999648
MEAN_MOTION    = 15.40648423
ECCENTRICITY   = .0000975
INCLINATION    = 43.0008
RA_OF_ASC_NODE = 29.1844
ARG_OF_PERICENTER = 272.5696
MEAN_ANOMALY   = 357.7902

EPHEMERIS_TYPE = 0
CLASSIFICATION_TYPE = U
NORAD_CAT_ID   = 67422
ELEMENT_SET_NO = 999
REV_AT_EPOCH   = 589
BSTAR          = .16434469E-2
MEAN_MOTION_DOT = .6885E-3
MEAN_MOTION_DDOT = 0

CCSDS_OMM_VERS = 2.0
CREATION_DATE  = 
ORIGINATOR     = 

OBJECT_NAME    = STARLINK-36465
OBJECT_ID      = 2026-005V
CENTER_NAME    = EARTH
REF_FRAME      = TEME
TIME_SYSTEM    = UTC
MEAN_ELEMENT_THEORY = SGP/SGP4

EPOCH          = 2026-02-11T06:49:05.613600
MEAN_MOTION    = 15.40710736
ECCENTRICITY   = .00015527
INCLINATION    = 43.0004
RA_OF_ASC_NODE = 29.2245
ARG_OF_PERICENTER = 254.8067
MEAN_ANOMALY   = 105.2618

EPHEMERIS_TYPE = 0
CLASSIFICATION_TYPE = U
NORAD_CAT_ID   = 67423
ELEMENT_SET_NO = 999
REV_AT_EPOCH   = 463
BSTAR          = .1784379E-2
MEAN_MOTION_DOT = .74997E-3
MEAN_MOTION_DDOT = 0

CCSDS_OMM_VERS = 2.0
CREATION_DATE  = 
ORIGINATOR     = 

OBJECT_NAME    = STARLINK-36362
OBJECT_ID      = 2026-005W
CENTER_NAME    = EARTH
REF_FRAME      = TEME
TIME_SYSTEM    = UTC
MEAN_ELEMENT_THEORY = SGP/SGP4

EPOCH          = 2026-02-11T00:29:13.550208
MEAN_MOTION    = 15.40719689
ECCENTRICITY   = .00011075
INCLINATION    = 43.0003
RA_OF_ASC_NODE = 30.6846
ARG_OF_PERICENTER = 206.2606
MEAN_ANOMALY   = 153.8195

EPHEMERIS_TYPE = 0
CLASSIFICATION_TYPE = U
NORAD_CAT_ID   = 67424
ELEMENT_SET_NO = 999
REV_AT_EPOCH   = 459
BSTAR          = .15378932E-2
MEAN_MOTION_DOT = .64525E-3
MEAN_MOTION_DDOT = 0

CCSDS_OMM_VERS = 2.0
CREATION_DATE  = 
ORIGINATOR     = 

OBJECT_NAME    = STARLINK-36447
OBJECT_ID      = 2026-005X
CENTER_NAME    = EARTH
REF_FRAME      = TEME
TIME_SYSTEM    = UTC
MEAN_ELEMENT_THEORY = SGP/SGP4

EPOCH          = 2026-02-11T00:22:46.568064
MEAN_MOTION    = 15.40737856
ECCENTRICITY   = .00008991
INCLINATION    = 42.9995
RA_OF_ASC_NODE = 30.6506
ARG_OF_PERICENTER = 229.4794
MEAN_ANOMALY   = 130.5984

EPHEMERIS_TYPE = 0
CLASSIFICATION_TYPE = U
NORAD_CAT_ID   = 67425
ELEMENT_SET_NO = 999
REV_AT_EPOCH   = 459
BSTAR          = .10321576E-2
MEAN_MOTION_DOT = .4311E-3
MEAN_MOTION_DDOT = 0

CCSDS_OMM_VERS = 2.0
CREATION_DATE  = 
ORIGINATOR     = 

OBJECT_NAME    = STARLINK-36146
OBJECT_ID      = 2026-005Y
CENTER_NAME    = EARTH
REF_FRAME      = TEME
TIME_SYSTEM    = UTC
MEAN_ELEMENT_THEORY = SGP/SGP4

EPOCH          = 2026-02-11T06:00:00.999648
MEAN_MOTION    = 15.40652281
ECCENTRICITY   = .00011151
INCLINATION    = 43.0007
RA_OF_ASC_NODE = 29.1227
ARG_OF_PERICENTER = 265.7279
MEAN_ANOMALY   = 29.5077

EPHEMERIS_TYPE = 0
CLASSIFICATION_TYPE = U
NORAD_CAT_ID   = 67426
ELEMENT_SET_NO = 999
REV_AT_EPOCH   = 589
BSTAR          = .1509705E-2
MEAN_MOTION_DOT = .63184E-3
MEAN_MOTION_DDOT = 0

CCSDS_OMM_VERS = 2.0
CREATION_DATE  = 
ORIGINATOR     = 

OBJECT_NAME    = STARLINK-36459
OBJECT_ID      = 2026-005Z
CENTER_NAME    = EARTH
REF_FRAME      = TEME
TIME_SYSTEM    = UTC
MEAN_ELEMENT_THEORY = SGP/SGP4

EPOCH          = 2026-02-11T06:00:00.999648
MEAN_MOTION    = 15.40656563
ECCENTRICITY   = .00013064
INCLINATION    = 43.0003
RA_OF_ASC_NODE = 29.0620
ARG_OF_PERICENTER = 272.2151
MEAN_ANOMALY   = 47.9006

EPHEMERIS_TYPE = 0
CLASSIFICATION_TYPE = U
NORAD_CAT_ID   = 67427
ELEMENT_SET_NO = 999
REV_AT_EPOCH   = 586
BSTAR          = .13568265E-2
MEAN_MOTION_DOT = .56715E-3
MEAN_MOTION_DDOT = 0

