STARLINK-36487          
1 67416U 26005N   26042.02701678  .00045017  00000+0  10771-2 0  9996
2 67416  43.0019  30.7347 0001707 221.6610 138.4117 15.40741874  4594
STARLINK-36374          
1 67417U 26005P   26041.98568655  .00138520  00000+0  23680-2 0  9992
2 67417  43.0025  30.4210 0000614 335.6018  24.4813 15.50067024  4598
STARLINK-36455          
1 67418U 26005Q   26042.25001157 -.02204625  00000+0 -54724-1 0  9999
2 67418  43.0004  28.9175 0001157 276.9593 103.6178 15.42837745  5935
STARLINK-36424          
1 67419U 26005R   26042.25001157  .00054664  00000+0  13084-2 0  9997
2 67419  43.0011  29.2446 0001460 272.2815 333.1946 15.40655128  5936
STARLINK-35564          
1 67420U 26005S   26041.91921221  .00066603  00000+0  11313-2 0  9993
2 67420  43.0010  30.7808 0001622 249.1555 110.9132 15.50583683  4585
STARLINK-36431          
1 67421U 26005T   26041.38097008  .00048389  00000+0  11578-2 0  9996
2 67421  43.0024  34.4886 0001487 243.8960 116.1744 15.40712088  4497
STARLINK-36418          
1 67422U 26005U   26042.25001157  .00068850  00000+0  16434-2 0  9995
2 67422  43.0008  29.1844 0000975 272.5696 357.7902 15.40648423  5896
STARLINK-36465          
1 67423U 26005V   26042.28409275  .00074997  00000+0  17844-2 0  9997
2 67423  43.0004  29.2245 0001552 254.8067 105.2618 15.40710736  4634
STARLINK-36362          
1 67424U 26005W   26042.02029572  .00064525  00000+0  15379-2 0  9995
2 67424  43.0003  30.6846 0001107 206.2606 153.8195 15.40719689  4593
STARLINK-36447          
1 67425U 26005X   26042.01581676  .00043110  00000+0  10322-2 0  9993
2 67425  42.9995  30.6506 0000899 229.4794 130.5984 15.40737856  4591
STARLINK-36146          
1 67426U 26005Y   26042.25001157  .00063184  00000+0  15097-2 0  9998
2 67426  43.0007  29.1227 0001115 265.7279  29.5077 15.40652281  5896
STARLINK-36459          
1 67427U 26005Z   26042.25001157  .00056715  00000+0  13568-2 0  9992
2 67427  43.0003  29.0620 0001306 272.2151  47.9006 15.40656563  5863
